[{"CCSDS_OMM_VERS":"3.0","COMMENT":"GENERATED VIA SPACE-TRACK.ORG API","CREATION_DATE":"2026-05-27T07:56:20","ORIGINATOR":"18 SPCS","OBJECT_NAME":"COSMOS 2584(GLONASS)","OBJECT_ID":"2025-042A","CENTER_NAME":"EARTH","REF_FRAME":"TEME","TIME_SYSTEM":"UTC","MEAN_ELEMENT_THEORY":"SGP4","EPOCH":"2026-05-27T00:34:04.269792","MEAN_MOTION":"2.13103852","ECCENTRICITY":"0.00059670","INCLINATION":"65.0730","RA_OF_ASC_NODE":"73.5210","ARG_OF_PERICENTER":"231.2903","MEAN_ANOMALY":"128.6445","EPHEMERIS_TYPE":"0","CLASSIFICATION_TYPE":"U","NORAD_CAT_ID":"63130","ELEMENT_SET_NO":"999","REV_AT_EPOCH":"959","BSTAR":"0.00000000000000","MEAN_MOTION_DOT":"-0.00000058","MEAN_MOTION_DDOT":"0.0000000000000","SEMIMAJOR_AXIS":"25507.877","PERIOD":"675.727","APOAPSIS":"19144.962","PERIAPSIS":"19114.521","OBJECT_TYPE":"PAYLOAD","RCS_SIZE":"LARGE","COUNTRY_CODE":"CIS","LAUNCH_DATE":"2025-03-02","SITE":"PKMTR","DECAY_DATE":null,"FILE":"5215491","GP_ID":"325164216","TLE_LINE0":"0 COSMOS 2584(GLONASS)","TLE_LINE1":"1 63130U 25042A   26147.02366053 -.00000058  00000-0  00000+0 0  9994","TLE_LINE2":"2 63130  65.0730  73.5210 0005967 231.2903 128.6445  2.13103852  9599"},{"CCSDS_OMM_VERS":"3.0","COMMENT":"GENERATED VIA SPACE-TRACK.ORG API","CREATION_DATE":"2026-05-27T18:02:45","ORIGINATOR":"18 SPCS","OBJECT_NAME":"COSMOS 2584(GLONASS)","OBJECT_ID":"2025-042A","CENTER_NAME":"EARTH","REF_FRAME":"TEME","TIME_SYSTEM":"UTC","MEAN_ELEMENT_THEORY":"SGP4","EPOCH":"2026-05-27T00:34:04.274976","MEAN_MOTION":"2.13103850","ECCENTRICITY":"0.00059670","INCLINATION":"65.0730","RA_OF_ASC_NODE":"73.5210","ARG_OF_PERICENTER":"231.3051","MEAN_ANOMALY":"128.6297","EPHEMERIS_TYPE":"0","CLASSIFICATION_TYPE":"U","NORAD_CAT_ID":"63130","ELEMENT_SET_NO":"999","REV_AT_EPOCH":"959","BSTAR":"0.00000000000000","MEAN_MOTION_DOT":"-0.00000058","MEAN_MOTION_DDOT":"0.0000000000000","SEMIMAJOR_AXIS":"25507.877","PERIOD":"675.727","APOAPSIS":"19144.962","PERIAPSIS":"19114.521","OBJECT_TYPE":"PAYLOAD","RCS_SIZE":"LARGE","COUNTRY_CODE":"CIS","LAUNCH_DATE":"2025-03-02","SITE":"PKMTR","DECAY_DATE":null,"FILE":"5216400","GP_ID":"325309405","TLE_LINE0":"0 COSMOS 2584(GLONASS)","TLE_LINE1":"1 63130U 25042A   26147.02366059 -.00000058  00000-0  00000-0 0  9991","TLE_LINE2":"2 63130  65.0730  73.5210 0005967 231.3051 128.6297  2.13103850  9597"},{"CCSDS_OMM_VERS":"3.0","COMMENT":"GENERATED VIA SPACE-TRACK.ORG API","CREATION_DATE":"2026-05-27T14:36:59","ORIGINATOR":"18 SPCS","OBJECT_NAME":"COSMOS 2584(GLONASS)","OBJECT_ID":"2025-042A","CENTER_NAME":"EARTH","REF_FRAME":"TEME","TIME_SYSTEM":"UTC","MEAN_ELEMENT_THEORY":"SGP4","EPOCH":"2026-05-27T00:34:04.274976","MEAN_MOTION":"2.13103850","ECCENTRICITY":"0.00059670","INCLINATION":"65.0730","RA_OF_ASC_NODE":"73.5210","ARG_OF_PERICENTER":"231.3051","MEAN_ANOMALY":"128.6297","EPHEMERIS_TYPE":"0","CLASSIFICATION_TYPE":"U","NORAD_CAT_ID":"63130","ELEMENT_SET_NO":"999","REV_AT_EPOCH":"959","BSTAR":"0.00000000000000","MEAN_MOTION_DOT":"-0.00000058","MEAN_MOTION_DDOT":"0.0000000000000","SEMIMAJOR_AXIS":"25507.877","PERIOD":"675.727","APOAPSIS":"19144.962","PERIAPSIS":"19114.521","OBJECT_TYPE":"PAYLOAD","RCS_SIZE":"LARGE","COUNTRY_CODE":"CIS","LAUNCH_DATE":"2025-03-02","SITE":"PKMTR","DECAY_DATE":null,"FILE":"5216223","GP_ID":"325269209","TLE_LINE0":"0 COSMOS 2584(GLONASS)","TLE_LINE1":"1 63130U 25042A   26147.02366059 -.00000058  00000-0  00000+0 0  9990","TLE_LINE2":"2 63130  65.0730  73.5210 0005967 231.3051 128.6297  2.13103850  9597"},{"CCSDS_OMM_VERS":"3.0","COMMENT":"GENERATED VIA SPACE-TRACK.ORG API","CREATION_DATE":"2026-05-28T10:52:39","ORIGINATOR":"18 SPCS","OBJECT_NAME":"COSMOS 2584(GLONASS)","OBJECT_ID":"2025-042A","CENTER_NAME":"EARTH","REF_FRAME":"TEME","TIME_SYSTEM":"UTC","MEAN_ELEMENT_THEORY":"SGP4","EPOCH":"2026-05-27T23:05:31.886304","MEAN_MOTION":"2.13103882","ECCENTRICITY":"0.00059416","INCLINATION":"65.0735","RA_OF_ASC_NODE":"73.4891","ARG_OF_PERICENTER":"230.9789","MEAN_ANOMALY":"128.9565","EPHEMERIS_TYPE":"0","CLASSIFICATION_TYPE":"U","NORAD_CAT_ID":"63130","ELEMENT_SET_NO":"999","REV_AT_EPOCH":"961","BSTAR":"0.00000000000000","MEAN_MOTION_DOT":"-0.00000061","MEAN_MOTION_DDOT":"0.0000000000000","SEMIMAJOR_AXIS":"25507.874","PERIOD":"675.727","APOAPSIS":"19144.895","PERIAPSIS":"19114.583","OBJECT_TYPE":"PAYLOAD","RCS_SIZE":"LARGE","COUNTRY_CODE":"CIS","LAUNCH_DATE":"2025-03-02","SITE":"PKMTR","DECAY_DATE":null,"FILE":"5218154","GP_ID":"325538765","TLE_LINE0":"0 COSMOS 2584(GLONASS)","TLE_LINE1":"1 63130U 25042A   26147.96217461 -.00000061  00000-0  00000-0 0  9990","TLE_LINE2":"2 63130  65.0735  73.4891 0005942 230.9789 128.9565  2.13103882  9611"},{"CCSDS_OMM_VERS":"3.0","COMMENT":"GENERATED VIA SPACE-TRACK.ORG API","CREATION_DATE":"2026-05-28T06:56:42","ORIGINATOR":"18 SPCS","OBJECT_NAME":"COSMOS 2584(GLONASS)","OBJECT_ID":"2025-042A","CENTER_NAME":"EARTH","REF_FRAME":"TEME","TIME_SYSTEM":"UTC","MEAN_ELEMENT_THEORY":"SGP4","EPOCH":"2026-05-27T23:05:31.886304","MEAN_MOTION":"2.13103882","ECCENTRICITY":"0.00059420","INCLINATION":"65.0735","RA_OF_ASC_NODE":"73.4891","ARG_OF_PERICENTER":"230.9789","MEAN_ANOMALY":"128.9565","EPHEMERIS_TYPE":"0","CLASSIFICATION_TYPE":"U","NORAD_CAT_ID":"63130","ELEMENT_SET_NO":"999","REV_AT_EPOCH":"961","BSTAR":"0.00000000000000","MEAN_MOTION_DOT":"-0.00000061","MEAN_MOTION_DDOT":"0.0000000000000","SEMIMAJOR_AXIS":"25507.874","PERIOD":"675.727","APOAPSIS":"19144.896","PERIAPSIS":"19114.582","OBJECT_TYPE":"PAYLOAD","RCS_SIZE":"LARGE","COUNTRY_CODE":"CIS","LAUNCH_DATE":"2025-03-02","SITE":"PKMTR","DECAY_DATE":null,"FILE":"5218033","GP_ID":"325502031","TLE_LINE0":"0 COSMOS 2584(GLONASS)","TLE_LINE1":"1 63130U 25042A   26147.96217461 -.00000061  00000-0  00000+0 0  9999","TLE_LINE2":"2 63130  65.0735  73.4891 0005942 230.9789 128.9565  2.13103882  9611"},{"CCSDS_OMM_VERS":"3.0","COMMENT":"GENERATED VIA SPACE-TRACK.ORG API","CREATION_DATE":"2026-05-29T17:54:44","ORIGINATOR":"18 SPCS","OBJECT_NAME":"COSMOS 2584(GLONASS)","OBJECT_ID":"2025-042A","CENTER_NAME":"EARTH","REF_FRAME":"TEME","TIME_SYSTEM":"UTC","MEAN_ELEMENT_THEORY":"SGP4","EPOCH":"2026-05-29T08:52:43.381056","MEAN_MOTION":"2.13103952","ECCENTRICITY":"0.00059579","INCLINATION":"65.0743","RA_OF_ASC_NODE":"73.4413","ARG_OF_PERICENTER":"230.8866","MEAN_ANOMALY":"129.0514","EPHEMERIS_TYPE":"0","CLASSIFICATION_TYPE":"U","NORAD_CAT_ID":"63130","ELEMENT_SET_NO":"999","REV_AT_EPOCH":"964","BSTAR":"0.00000000000000","MEAN_MOTION_DOT":"-0.00000058","MEAN_MOTION_DDOT":"0.0000000000000","SEMIMAJOR_AXIS":"25507.869","PERIOD":"675.727","APOAPSIS":"19144.931","PERIAPSIS":"19114.536","OBJECT_TYPE":"PAYLOAD","RCS_SIZE":"LARGE","COUNTRY_CODE":"CIS","LAUNCH_DATE":"2025-03-02","SITE":"PKMTR","DECAY_DATE":null,"FILE":"5221432","GP_ID":"325883958","TLE_LINE0":"0 COSMOS 2584(GLONASS)","TLE_LINE1":"1 63130U 25042A   26149.36994654 -.00000058  00000-0  00000-0 0  9998","TLE_LINE2":"2 63130  65.0743  73.4413 0005958 230.8866 129.0514  2.13103952  9649"},{"CCSDS_OMM_VERS":"3.0","COMMENT":"GENERATED VIA SPACE-TRACK.ORG API","CREATION_DATE":"2026-05-29T15:06:54","ORIGINATOR":"18 SPCS","OBJECT_NAME":"COSMOS 2584(GLONASS)","OBJECT_ID":"2025-042A","CENTER_NAME":"EARTH","REF_FRAME":"TEME","TIME_SYSTEM":"UTC","MEAN_ELEMENT_THEORY":"SGP4","EPOCH":"2026-05-29T08:52:43.381056","MEAN_MOTION":"2.13103952","ECCENTRICITY":"0.00059580","INCLINATION":"65.0743","RA_OF_ASC_NODE":"73.4413","ARG_OF_PERICENTER":"230.8866","MEAN_ANOMALY":"129.0514","EPHEMERIS_TYPE":"0","CLASSIFICATION_TYPE":"U","NORAD_CAT_ID":"63130","ELEMENT_SET_NO":"999","REV_AT_EPOCH":"964","BSTAR":"0.00000000000000","MEAN_MOTION_DOT":"-0.00000058","MEAN_MOTION_DDOT":"0.0000000000000","SEMIMAJOR_AXIS":"25507.869","PERIOD":"675.727","APOAPSIS":"19144.931","PERIAPSIS":"19114.536","OBJECT_TYPE":"PAYLOAD","RCS_SIZE":"LARGE","COUNTRY_CODE":"CIS","LAUNCH_DATE":"2025-03-02","SITE":"PKMTR","DECAY_DATE":null,"FILE":"5221284","GP_ID":"325846091","TLE_LINE0":"0 COSMOS 2584(GLONASS)","TLE_LINE1":"1 63130U 25042A   26149.36994654 -.00000058  00000-0  00000+0 0  9997","TLE_LINE2":"2 63130  65.0743  73.4413 0005958 230.8866 129.0514  2.13103952  9649"},{"CCSDS_OMM_VERS":"3.0","COMMENT":"GENERATED VIA SPACE-TRACK.ORG API","CREATION_DATE":"2026-05-31T06:06:41","ORIGINATOR":"18 SPCS","OBJECT_NAME":"COSMOS 2584(GLONASS)","OBJECT_ID":"2025-042A","CENTER_NAME":"EARTH","REF_FRAME":"TEME","TIME_SYSTEM":"UTC","MEAN_ELEMENT_THEORY":"SGP4","EPOCH":"2026-05-30T07:24:11.392416","MEAN_MOTION":"2.13103952","ECCENTRICITY":"0.00059405","INCLINATION":"65.0747","RA_OF_ASC_NODE":"73.4094","ARG_OF_PERICENTER":"230.6218","MEAN_ANOMALY":"129.3199","EPHEMERIS_TYPE":"0","CLASSIFICATION_TYPE":"U","NORAD_CAT_ID":"63130","ELEMENT_SET_NO":"999","REV_AT_EPOCH":"966","BSTAR":"0.00000000000000","MEAN_MOTION_DOT":"-0.00000052","MEAN_MOTION_DDOT":"0.0000000000000","SEMIMAJOR_AXIS":"25507.869","PERIOD":"675.727","APOAPSIS":"19144.887","PERIAPSIS":"19114.581","OBJECT_TYPE":"PAYLOAD","RCS_SIZE":"LARGE","COUNTRY_CODE":"CIS","LAUNCH_DATE":"2025-03-02","SITE":"PKMTR","DECAY_DATE":null,"FILE":"5223946","GP_ID":"326216769","TLE_LINE0":"0 COSMOS 2584(GLONASS)","TLE_LINE1":"1 63130U 25042A   26150.30846519 -.00000052  00000-0  00000-0 0  9994","TLE_LINE2":"2 63130  65.0747  73.4094 0005940 230.6218 129.3199  2.13103952  9662"}]